[{"OBJECT_NAME":"TIANMU-1 14","OBJECT_ID":"2023-205D","EPOCH":"2026-03-09T23:38:37.144032","MEAN_MOTION":15.2583937,"ECCENTRICITY":0.00072842,"INCLINATION":97.35,"RA_OF_ASC_NODE":91.4174,"ARG_OF_PERICENTER":335.7472,"MEAN_ANOMALY":24.3423,"EPHEMERIS_TYPE":0,"CLASSIFICATION_TYPE":"U","NORAD_CAT_ID":58648,"ELEMENT_SET_NO":999,"REV_AT_EPOCH":12237,"BSTAR":0.00030290643,"MEAN_MOTION_DOT":7.686e-5,"MEAN_MOTION_DDOT":0},{"OBJECT_NAME":"STARLINK-35964","OBJECT_ID":"2025-278F","EPOCH":"2026-03-09T11:15:11.371104","MEAN_MOTION":15.27590262,"ECCENTRICITY":0.00023157,"INCLINATION":43.0059,"RA_OF_ASC_NODE":100.7099,"ARG_OF_PERICENTER":252.2237,"MEAN_ANOMALY":107.8362,"EPHEMERIS_TYPE":0,"CLASSIFICATION_TYPE":"U","NORAD_CAT_ID":66796,"ELEMENT_SET_NO":999,"REV_AT_EPOCH":1534,"BSTAR":0.0010740251,"MEAN_MOTION_DOT":0.00029421,"MEAN_MOTION_DDOT":0}]
